{"type": "FeatureCollection", "features": [{"type": "Feature", "geometry": {"type": "LineString", "coordinates": [[103.9589581, 1.3213702], [103.9590228, 1.3214001], [103.9596942, 1.3217643], [103.9599805, 1.3219531], [103.9602202, 1.3221702], [103.9605553, 1.3225917], [103.9606337, 1.3226877], [103.9607356, 1.3228124], [103.962012, 1.3243641], [103.9636541, 1.3263047], [103.9638936, 1.3265966], [103.9640294, 1.326791], [103.9645612, 1.3281131], [103.9648977, 1.3288751], [103.9649927, 1.3290797], [103.9657935, 1.331018], [103.9658572, 1.3312501], [103.9658694, 1.3314573], [103.965858, 1.3316726], [103.9657968, 1.3319524], [103.965699, 1.3322604], [103.9655735, 1.3325592], [103.965414, 1.3329033], [103.9652956, 1.3331134], [103.9651543, 1.3333372], [103.96495, 1.3335933], [103.9647038, 1.3338018], [103.9644262, 1.3340338], [103.9630965, 1.3348067], [103.9621845, 1.3354135]]}, "properties": {"color": "#0354A6", "name": "Downtown Line (DT)"}}, {"type": "Feature", "geometry": {"type": "LineString", "coordinates": [[103.7613852, 1.4674378], [103.7615648, 1.4672172], [103.7616539, 1.4670724], [103.7621273, 1.4662117], [103.7624317, 1.4656141], [103.762547, 1.4653978], [103.7630858, 1.4643655], [103.7635732, 1.463407], [103.7640585, 1.4626105], [103.7641925, 1.462401], [103.7647699, 1.4614723], [103.7651343, 1.4609202], [103.7653263, 1.4606924], [103.7654618, 1.460552], [103.7656085, 1.4604203], [103.7657571, 1.460308], [103.7659166, 1.4602032], [103.7660339, 1.4601404], [103.7661376, 1.4600878], [103.76623, 1.4600463], [103.7663536, 1.4599924], [103.766515, 1.4599373], [103.7666456, 1.4599024], [103.7667465, 1.4598783], [103.7669283, 1.4598421], [103.7671072, 1.4598194], [103.7672435, 1.4598103], [103.7673851, 1.4598089], [103.7675181, 1.4598157], [103.7676467, 1.4598293], [103.7677908, 1.459853], [103.7679278, 1.4598788], [103.7680579, 1.4599079], [103.7682093, 1.4599524], [103.7683242, 1.4599956], [103.7684799, 1.4600646], [103.7686134, 1.4601423], [103.7692555, 1.460564], [103.7710812, 1.46179], [103.7712587, 1.4619044], [103.7714018, 1.4619811], [103.7715729, 1.4620705], [103.7717482, 1.4621475], [103.7719688, 1.4622259], [103.7722429, 1.4623053], [103.7729121, 1.4624864], [103.773359, 1.4626109], [103.7736749, 1.4626957], [103.774237, 1.4628488], [103.7744125, 1.462895], [103.7746973, 1.4629569], [103.7749308, 1.4630021], [103.7752095, 1.463035], [103.7754106, 1.4630423], [103.7756508, 1.463039], [103.775891, 1.4630168], [103.7760644, 1.4629911], [103.776335, 1.4629359], [103.7765294, 1.4628795], [103.7768136, 1.4627774], [103.7769757, 1.4627061], [103.7770808, 1.4626549], [103.7772789, 1.4625469], [103.7774265, 1.462455], [103.7775493, 1.4623727], [103.7776879, 1.4622651], [103.777893, 1.4620905], [103.778051, 1.4619301], [103.7782381, 1.4617248], [103.7784036, 1.4615085], [103.7786421, 1.4611567], [103.7811539, 1.4572642], [103.782482, 1.4552172], [103.7827765, 1.4547524], [103.7835287, 1.4534347]]}, "properties": {"color": "#888888", "name": "Johor Bahru\u2013Singapore Rapid Transit System / Sistem Transit Aliran Johor Bahru\u2013Singapura"}}, {"type": "Feature", "geometry": {"type": "LineString", "coordinates": [[103.8547506, 1.2751712], [103.8542861, 1.2744797], [103.8542131, 1.2743867], [103.8541235, 1.2743051], [103.8540435, 1.2742317], [103.8538606, 1.2741015], [103.8536525, 1.2739865], [103.8534252, 1.2738871], [103.8531276, 1.273817], [103.8528588, 1.2737723], [103.8526775, 1.273762], [103.8524054, 1.273771], [103.8521705, 1.2738109], [103.8520397, 1.2738405], [103.851055, 1.2741202], [103.8508526, 1.274164], [103.8507194, 1.2741737], [103.85053, 1.2741738], [103.8502694, 1.2741598], [103.8500942, 1.2741296], [103.8499551, 1.2741009], [103.8490756, 1.2738154], [103.8488797, 1.2737538], [103.8472195, 1.2732453], [103.8462432, 1.2729043], [103.8461122, 1.2728644], [103.8459562, 1.2728325], [103.8456462, 1.2728328], [103.8404935, 1.272688], [103.8396029, 1.2727849], [103.8387745, 1.2729775], [103.8381496, 1.2730714], [103.8369625, 1.2730484], [103.8346487, 1.2729516], [103.8340956, 1.2728935], [103.8337693, 1.2728434], [103.833585, 1.2727905], [103.8334022, 1.2727041], [103.8332738, 1.2726203], [103.8322349, 1.2716825], [103.8305544, 1.2701546], [103.8296295, 1.2693505], [103.8280937, 1.2681171], [103.8265802, 1.2666368], [103.8262301, 1.2663402], [103.8257281, 1.2659496], [103.8252843, 1.2657536], [103.8249004, 1.265592], [103.8245147, 1.2655009], [103.8239542, 1.2653635], [103.8236828, 1.2653213], [103.8234724, 1.2653041]]}, "properties": {"color": "#fa9e0d", "name": "Circle Line (CC)"}}, {"type": "Feature", "geometry": {"type": "LineString", "coordinates": [[103.9443878, 1.3138302], [103.9467619, 1.3145983], [103.9469523, 1.3146943], [103.9471582, 1.3148314], [103.9473112, 1.3149561], [103.9493949, 1.3167531], [103.950497, 1.3176824], [103.9508924, 1.3180201], [103.9509954, 1.3180908], [103.9510999, 1.3181536], [103.9519438, 1.318408], [103.9519883, 1.3184219], [103.9531865, 1.3187661], [103.9534633, 1.3188617], [103.9550845, 1.3195326], [103.9558453, 1.3198391], [103.9560028, 1.3199047]]}, "properties": {"color": "#9D5B25", "name": "Thomson\u2013East Coast Line"}}, {"type": "Feature", "geometry": {"type": "LineString", "coordinates": [[103.7302846, 1.3670552], [103.7297233, 1.3656037], [103.7295526, 1.3649628], [103.7290225, 1.3636859]]}, "properties": {"color": "#0099aa", "name": "Jurong Region Line (JRL)"}}, {"type": "Feature", "geometry": {"type": "LineString", "coordinates": [[103.7028158, 1.3450296], [103.7034015, 1.3441694], [103.7035741, 1.3438495], [103.7036349, 1.3436417], [103.703676, 1.3433473], [103.7040593, 1.3399859], [103.7040979, 1.3397084], [103.7041919, 1.3393879], [103.7049075, 1.33742]]}, "properties": {"color": "#0099aa", "name": "Jurong Region Line (JRL)"}}, {"type": "Feature", "geometry": {"type": "LineString", "coordinates": [[103.7047447, 1.3373507], [103.7041513, 1.3390613], [103.7040668, 1.339381], [103.7039842, 1.3400499], [103.7036392, 1.3433134], [103.7035775, 1.3436475], [103.7034626, 1.3439808], [103.7027531, 1.3449842]]}, "properties": {"color": "#0099aa", "name": "Jurong Region Line (JRL)"}}, {"type": "Feature", "geometry": {"type": "LineString", "coordinates": [[103.7443689, 1.3198588], [103.7452002, 1.3214188], [103.7452809, 1.3215973], [103.7453525, 1.3218136], [103.745394, 1.3219853], [103.745433, 1.3221878], [103.7454649, 1.3245274], [103.7453902, 1.3251986], [103.7452498, 1.3257877], [103.7449103, 1.3271243], [103.7447788, 1.3274716], [103.7446986, 1.3276273], [103.7446255, 1.3277558], [103.7445561, 1.3278612], [103.7444497, 1.3279987], [103.7443959, 1.3280625], [103.7443173, 1.328154], [103.7442264, 1.3282454], [103.7433283, 1.3291027], [103.7430981, 1.3293572], [103.7427807, 1.3296994], [103.7425842, 1.3300442], [103.7424787, 1.3304273], [103.742466, 1.3308059], [103.7425117, 1.33129], [103.7424906, 1.3317846], [103.7424052, 1.3320598], [103.7419367, 1.3329005], [103.7413855, 1.333947], [103.7408846, 1.3350018], [103.7404108, 1.3358779], [103.740247, 1.3363462], [103.7402278, 1.3367337], [103.7403511, 1.3372388], [103.7406783, 1.3377113], [103.7420581, 1.3394351], [103.7427941, 1.3404353], [103.743374, 1.3410965], [103.7442794, 1.3423238], [103.7445965, 1.3430093], [103.7446502, 1.3433937], [103.7446122, 1.3437725], [103.7444773, 1.344171], [103.744094, 1.3446967], [103.7435475, 1.3450485], [103.742981, 1.3451694], [103.7405579, 1.3453406], [103.7402078, 1.3453967], [103.7386524, 1.3457909], [103.7382813, 1.3460045], [103.7380787, 1.3462029], [103.7379557, 1.3463863], [103.7378594, 1.3465833], [103.7377996, 1.3467997], [103.7377725, 1.3470111], [103.7377647, 1.3472589], [103.7377603, 1.3486509], [103.7377446, 1.3489772], [103.7376932, 1.3493039], [103.7374828, 1.3499766], [103.7372319, 1.3506848], [103.7369572, 1.3515605], [103.7364911, 1.353041], [103.736281, 1.3537859], [103.7361993, 1.35405], [103.7361126, 1.35428], [103.7359941, 1.3545188], [103.735849, 1.354747], [103.7357092, 1.3549274], [103.735557, 1.3551061], [103.7350677, 1.355616], [103.7349327, 1.3557731], [103.7343863, 1.3562824], [103.7338609, 1.3568024], [103.7329364, 1.3577632], [103.73217, 1.3586193], [103.7311485, 1.3596924], [103.7302748, 1.3605598], [103.7293669, 1.3615424], [103.7291244, 1.3618164], [103.7289373, 1.3621008], [103.7288712, 1.3622732], [103.7288224, 1.3624622], [103.7287791, 1.3626461], [103.7287723, 1.3628031], [103.7287766, 1.3630233], [103.7288086, 1.3632029], [103.728965, 1.3634426], [103.7290225, 1.3636859]]}, "properties": {"color": "#0099aa", "name": "Jurong Region Line (JRL)"}}, {"type": "Feature", "geometry": {"type": "LineString", "coordinates": [[103.7289563, 1.3632289], [103.7289046, 1.3630554], [103.728872, 1.3628788], [103.7288614, 1.3626751], [103.7288835, 1.3624771], [103.7289342, 1.3622935], [103.7289961, 1.3621306], [103.7291657, 1.3618621], [103.7294032, 1.3615925], [103.7295654, 1.3614229], [103.7311816, 1.3597347], [103.7322197, 1.3586565], [103.7330365, 1.3578537], [103.7339584, 1.3568947], [103.734449, 1.3563681], [103.7350912, 1.3556518], [103.7355871, 1.3551327], [103.7357428, 1.3549575], [103.735884, 1.3547706], [103.7360241, 1.3545506], [103.7361462, 1.3543136], [103.7362524, 1.3540818], [103.736363, 1.3538226], [103.7366277, 1.3530946], [103.7370991, 1.3515988], [103.7373681, 1.3507339], [103.7375943, 1.3500103], [103.7377969, 1.3493324], [103.7378472, 1.3489935], [103.7378585, 1.3486528], [103.7378664, 1.3472681], [103.7378803, 1.3470289], [103.7379105, 1.346829], [103.7379682, 1.3466463], [103.7380542, 1.3464767], [103.7381673, 1.3463128], [103.7383577, 1.3461278], [103.7387001, 1.3459276], [103.7406946, 1.3454241], [103.741161, 1.3453513], [103.7429843, 1.3452225], [103.7435666, 1.3450952], [103.7441263, 1.3447482], [103.7445242, 1.3442213], [103.7446755, 1.343783], [103.7447123, 1.3434018], [103.7446421, 1.3429878], [103.744333, 1.3422782], [103.7431529, 1.3406785], [103.7421839, 1.3393686], [103.7407352, 1.3376908], [103.7404015, 1.3372194], [103.7402783, 1.3366912], [103.740309, 1.3363346], [103.7404635, 1.3358962], [103.7409942, 1.3349051], [103.7414277, 1.3339689], [103.7419909, 1.3329314], [103.7423109, 1.3323418], [103.7424189, 1.3321604], [103.7425424, 1.3317798], [103.7425635, 1.3312804], [103.7425199, 1.330809], [103.7425336, 1.3304254], [103.7426342, 1.330065], [103.7428184, 1.3297398], [103.7431542, 1.3293785], [103.743356, 1.3291621], [103.7444475, 1.3281179], [103.7445792, 1.327989], [103.7447455, 1.3277907], [103.744859, 1.3276222], [103.7449505, 1.3274414], [103.7449859, 1.3273648], [103.7450653, 1.3271327], [103.7453578, 1.3259976], [103.7454669, 1.3255362], [103.7455163, 1.3251809], [103.7455728, 1.3220941], [103.7455502, 1.3218502], [103.7455246, 1.3217196], [103.7454754, 1.3215394], [103.7454092, 1.3213672], [103.7452761, 1.3210989], [103.7445013, 1.3197653]]}, "properties": {"color": "#0099aa", "name": "Jurong Region Line (JRL)"}}, {"type": "Feature", "geometry": {"type": "LineString", "coordinates": [[103.7027531, 1.3449842], [103.7018921, 1.3463245], [103.7014153, 1.3471086], [103.7011834, 1.3474424], [103.7010764, 1.3475857], [103.7009647, 1.3477012], [103.7008578, 1.3477954], [103.7007609, 1.3478647], [103.7005715, 1.3479704], [103.7004211, 1.3480255], [103.7002012, 1.3480795], [103.6999976, 1.3481068], [103.6988409, 1.3482393], [103.6980778, 1.3483266], [103.6973652, 1.3484082], [103.6966762, 1.3484861], [103.6965336, 1.3485115], [103.6961868, 1.3485583], [103.6959193, 1.3486009], [103.6956994, 1.3486468], [103.695459, 1.3487088], [103.6950385, 1.3488112], [103.694906, 1.3488442], [103.6947654, 1.34887], [103.6946016, 1.3489096], [103.6944421, 1.3489522], [103.6942903, 1.3489973], [103.6941654, 1.3490477], [103.6938213, 1.3492514], [103.6932554, 1.3496607], [103.6924634, 1.3502196], [103.6912783, 1.3510727], [103.6906163, 1.3515502], [103.6904323, 1.3516964], [103.6902731, 1.3518539], [103.6901696, 1.3519906], [103.690061, 1.352187], [103.6899678, 1.3524234], [103.6895133, 1.3537888], [103.689379, 1.3541112], [103.6892143, 1.3544123], [103.6890431, 1.3546515], [103.6888361, 1.3548466], [103.6886289, 1.354972], [103.6884064, 1.3550473], [103.688229, 1.355073], [103.6880557, 1.3550734], [103.6878542, 1.3550435], [103.6876546, 1.3549714], [103.6875212, 1.3548969], [103.687389, 1.3548015], [103.6872874, 1.3547044], [103.687157, 1.3545359], [103.6870451, 1.3543505], [103.6862833, 1.3529658], [103.6861868, 1.3527911], [103.6861055, 1.3526245], [103.6860521, 1.3524856], [103.6859606, 1.3521678], [103.6858646, 1.3516368], [103.6857949, 1.3513076], [103.685714, 1.3510739], [103.6856012, 1.3508473], [103.6854133, 1.3505824], [103.6852361, 1.3504022], [103.6849776, 1.350212], [103.6846226, 1.3500412], [103.6843829, 1.3499766], [103.6841298, 1.3499313], [103.6837964, 1.349888], [103.6835228, 1.3498368], [103.6832574, 1.3497608], [103.6830043, 1.3496591], [103.6827532, 1.3495282], [103.6818909, 1.3490312], [103.6796336, 1.3477227], [103.678582, 1.34711], [103.6783346, 1.3469336], [103.6781456, 1.3467413], [103.6779705, 1.3464804], [103.6778457, 1.3461801], [103.6777921, 1.3459321], [103.6777787, 1.3457068], [103.6778081, 1.3454387], [103.6779021, 1.3450981], [103.6781435, 1.3444304], [103.6790778, 1.3420831]]}, "properties": {"color": "#0099aa", "name": "Jurong Region Line (JRL)"}}, {"type": "Feature", "geometry": {"type": "LineString", "coordinates": [[103.678932, 1.3420145], [103.6780496, 1.344401], [103.6778498, 1.345078], [103.6777599, 1.3454373], [103.6777318, 1.3457108], [103.6777465, 1.3459401], [103.6778015, 1.3461962], [103.6779302, 1.3465046], [103.6781091, 1.3467702], [103.6783076, 1.3469704], [103.6785397, 1.3471422], [103.6796058, 1.3477661], [103.6817121, 1.3489889], [103.6818656, 1.349069], [103.6827313, 1.3495721], [103.6829822, 1.3496997], [103.6832406, 1.3498032], [103.6835122, 1.349882], [103.6837847, 1.3499303], [103.6841208, 1.3499788], [103.6843678, 1.3500173], [103.684605, 1.3500834], [103.6849543, 1.3502505], [103.6852108, 1.3504417], [103.6853821, 1.3506186], [103.6855666, 1.3508765], [103.6856733, 1.3510942], [103.6857528, 1.3513198], [103.6858138, 1.351645], [103.6858802, 1.3521802], [103.6859365, 1.3525177], [103.6859724, 1.352657], [103.6860435, 1.3528541], [103.686138, 1.3530485], [103.6869023, 1.3544345], [103.6870255, 1.354655], [103.6871541, 1.3548372], [103.6872972, 1.3549789], [103.6874362, 1.3550835], [103.6875857, 1.3551605], [103.6878142, 1.3552363], [103.6880759, 1.3552567], [103.6882617, 1.3552387], [103.6884485, 1.3551897], [103.6886941, 1.3550688], [103.688891, 1.3549043], [103.6890856, 1.3546807], [103.6892558, 1.3544337], [103.6894198, 1.3541299], [103.6895549, 1.3538102], [103.6900141, 1.3524372], [103.6901011, 1.3522047], [103.6902105, 1.3520137], [103.6903084, 1.3518826], [103.6904623, 1.3517296], [103.6906443, 1.3515892], [103.6913062, 1.3511062], [103.6924935, 1.35025], [103.6932796, 1.3496954], [103.6938333, 1.3493078], [103.6941686, 1.3491047], [103.6943026, 1.349049], [103.694513, 1.3489943], [103.6947866, 1.3489312], [103.6951244, 1.3488525], [103.6954874, 1.3487657], [103.6957107, 1.348709], [103.6959238, 1.3486574], [103.6961262, 1.3486192], [103.6962548, 1.3486007], [103.6963808, 1.3485832], [103.696548, 1.3485547], [103.6966843, 1.348532], [103.6973697, 1.3484541], [103.6988501, 1.3482848], [103.7000054, 1.3481605], [103.7002223, 1.3481296], [103.7004496, 1.348072], [103.700599, 1.3480137], [103.7007928, 1.3479083], [103.700889, 1.3478359], [103.7010066, 1.347736]]}, "properties": {"color": "#0099aa", "name": "Jurong Region Line (JRL)"}}, {"type": "Feature", "geometry": {"type": "LineString", "coordinates": [[103.7033068, 1.3462121], [103.7030766, 1.3460688], [103.7029265, 1.3459103], [103.7028526, 1.3457872], [103.7027967, 1.3456632], [103.70276, 1.3455193], [103.7027498, 1.3453258], [103.7027734, 1.3451629], [103.7028158, 1.3450296]]}, "properties": {"color": "#0099aa", "name": "Jurong Region Line (JRL)"}}, {"type": "Feature", "geometry": {"type": "LineString", "coordinates": [[103.7010066, 1.347736], [103.7011135, 1.3476202], [103.7012321, 1.3474733], [103.7014621, 1.3471328], [103.7018541, 1.3465573], [103.7020001, 1.3463924], [103.7021972, 1.3462605], [103.7023872, 1.3461808], [103.7025783, 1.3461581], [103.7027871, 1.3461761], [103.7029713, 1.3462371]]}, "properties": {"color": "#0099aa", "name": "Jurong Region Line (JRL)"}}, {"type": "Feature", "geometry": {"type": "LineString", "coordinates": [[103.7029713, 1.3462371], [103.7032273, 1.3463637], [103.7045245, 1.3470114], [103.705318, 1.3473432], [103.7056164, 1.3474711], [103.7059433, 1.3476488], [103.707016, 1.3483699], [103.7076298, 1.3488549], [103.7088072, 1.3496575], [103.7100361, 1.3504164], [103.7124741, 1.3520751], [103.7131723, 1.3526232], [103.7144626, 1.3535179], [103.7149767, 1.3538318], [103.7155566, 1.3541236], [103.7161598, 1.3544324], [103.7167584, 1.3547004], [103.7173553, 1.3549222], [103.7176541, 1.3550115], [103.7179626, 1.3550555], [103.7204567, 1.3552722], [103.7211463, 1.3553051], [103.7218366, 1.3553239], [103.7221262, 1.3553403], [103.7224297, 1.3553799], [103.7227636, 1.3554756], [103.7231099, 1.3555936], [103.7236531, 1.3559085], [103.7241593, 1.3563515], [103.7249613, 1.3571765], [103.7252566, 1.3574696], [103.7254469, 1.3576468], [103.7266316, 1.3586412], [103.727055, 1.3590037], [103.7272277, 1.3591614], [103.7273083, 1.3592598], [103.7273604, 1.3593275], [103.7274188, 1.3594286], [103.7275028, 1.3595994], [103.7279851, 1.3608889], [103.7281392, 1.361325], [103.7285183, 1.362255], [103.7287107, 1.3628014], [103.7288611, 1.3632261], [103.7290225, 1.3636859], [103.7292416, 1.3642991], [103.7294819, 1.3649949], [103.7297234, 1.3656072], [103.7306794, 1.3682401], [103.7322355, 1.3724853], [103.7324447, 1.3730253], [103.7327415, 1.3735415], [103.7330098, 1.3738829], [103.7333561, 1.3742217], [103.7349293, 1.3757363], [103.7352302, 1.3759839], [103.7355646, 1.3762274], [103.7380733, 1.3779341], [103.7385181, 1.3782356], [103.7390089, 1.3786075]]}, "properties": {"color": "#0099aa", "name": "Jurong Region Line (JRL)"}}, {"type": "Feature", "geometry": {"type": "LineString", "coordinates": [[103.7104815, 1.3116948], [103.710175, 1.3136651], [103.7101152, 1.3139394], [103.7097734, 1.3166422], [103.7097895, 1.3170847], [103.7098437, 1.3173446], [103.710305, 1.3196203], [103.710346, 1.3199351], [103.7103421, 1.3202501], [103.7102998, 1.3206382], [103.7096863, 1.3234596], [103.7093944, 1.3245241], [103.7090148, 1.3259534], [103.7087823, 1.3269714], [103.708313, 1.3286302], [103.7081963, 1.3292266], [103.7081265, 1.3300505], [103.70814, 1.3308702], [103.7081936, 1.3313663], [103.7083168, 1.3320327], [103.7090003, 1.3347182], [103.7089867, 1.3350378], [103.7089233, 1.3352511], [103.7087761, 1.3354674], [103.7086013, 1.3356218], [103.7083471, 1.3357468], [103.7068592, 1.3361346], [103.7053651, 1.3367287], [103.7051322, 1.3368531], [103.7049477, 1.3370162], [103.7047447, 1.3373507]]}, "properties": {"color": "#0099aa", "name": "Jurong Region Line (JRL)"}}, {"type": "Feature", "geometry": {"type": "LineString", "coordinates": [[103.7049075, 1.33742], [103.7050942, 1.3370841], [103.7052444, 1.3369452], [103.7054367, 1.3368217], [103.706934, 1.3362266], [103.7084004, 1.3358389], [103.7087307, 1.3357114], [103.70891, 1.3355709], [103.7090804, 1.3353428], [103.7091786, 1.335072], [103.7091674, 1.3346454], [103.7083247, 1.3313346], [103.7082197, 1.3308671], [103.7081744, 1.3301936], [103.7082498, 1.3292747], [103.7084055, 1.3284917], [103.7087864, 1.3271563], [103.7091771, 1.3260091], [103.7095419, 1.3245531], [103.709725, 1.3235609], [103.7102943, 1.3209101], [103.7103831, 1.3204332], [103.7104009, 1.3199602], [103.7103567, 1.3196316], [103.7098595, 1.3171606], [103.7098244, 1.3169345], [103.7098286, 1.3165951], [103.7100283, 1.3151298], [103.7100926, 1.3146954], [103.7102119, 1.3143412], [103.7102165, 1.3143276], [103.7103018, 1.313891], [103.7106398, 1.311719]]}, "properties": {"color": "#0099aa", "name": "Jurong Region Line (JRL)"}}, {"type": "Feature", "geometry": {"type": "LineString", "coordinates": [[103.7390747, 1.3785228], [103.7385408, 1.3781932], [103.735576, 1.3761895], [103.7352605, 1.3759507], [103.7349761, 1.375705], [103.7334017, 1.3741908], [103.7331155, 1.3738504], [103.7328838, 1.3735252], [103.7325911, 1.3729887], [103.7323755, 1.3724329], [103.7308728, 1.3683779], [103.7305065, 1.3673525], [103.7298482, 1.3655619], [103.7289563, 1.3632289], [103.7285725, 1.3622454], [103.7282226, 1.3613757], [103.7280422, 1.3608495], [103.727642, 1.3597896], [103.7275323, 1.3594936], [103.7274835, 1.3593729], [103.7274197, 1.3592379], [103.7273079, 1.359059], [103.7271602, 1.358887], [103.7269726, 1.3587217], [103.7266886, 1.3584845], [103.7255878, 1.3575533], [103.7253764, 1.3573762], [103.7248048, 1.3568915], [103.724515, 1.3566198], [103.7242121, 1.356323], [103.7236999, 1.3558922], [103.7231407, 1.355557], [103.7227893, 1.3554336], [103.7224577, 1.3553449], [103.7221402, 1.3553006], [103.7218366, 1.3552772], [103.7211489, 1.3552653], [103.7204605, 1.3552309], [103.7192055, 1.355122], [103.7185957, 1.3550671], [103.7182928, 1.3550204], [103.7179716, 1.3549469], [103.7173892, 1.3547897], [103.7168078, 1.3545751], [103.7162184, 1.3542969], [103.715612, 1.3539956], [103.715063, 1.3537024], [103.7145749, 1.353394], [103.7132625, 1.3525041], [103.7124953, 1.3520386], [103.710061, 1.3503825], [103.7088966, 1.3495153], [103.7077112, 1.348711], [103.7070507, 1.348328], [103.7059757, 1.3476053], [103.7056575, 1.3474106], [103.7053601, 1.3472441], [103.7046051, 1.3468606], [103.7033068, 1.3462121]]}, "properties": {"color": "#0099aa", "name": "Jurong Region Line (JRL)"}}, {"type": "Feature", "geometry": {"type": "LineString", "coordinates": [[103.8006755, 1.4183938], [103.8012719, 1.4179177]]}, "properties": {"color": "#9E652E", "name": "Thomson\u2013East Coast Line"}}, {"type": "Feature", "geometry": {"type": "LineString", "coordinates": [[103.7982535, 1.4196801], [103.7984064, 1.4195613]]}, "properties": {"color": "#9E652E", "name": "Thomson\u2013East Coast Line"}}, {"type": "Feature", "geometry": {"type": "LineString", "coordinates": [[103.8321948, 1.3646969], [103.8325476, 1.3645292], [103.8328966, 1.364397], [103.8332496, 1.3642871], [103.8336572, 1.364179], [103.8340378, 1.3640898], [103.8343918, 1.3639993], [103.8347964, 1.3638725], [103.8360892, 1.3633284], [103.8385531, 1.3623254], [103.8389959, 1.3621629], [103.8394179, 1.3620339], [103.8398391, 1.3619808], [103.840235, 1.3619853], [103.8406421, 1.3620503], [103.8410073, 1.362178], [103.8413399, 1.3623663], [103.8416631, 1.3626236], [103.8420084, 1.362947], [103.8423353, 1.3632934], [103.8426741, 1.3637823], [103.8428577, 1.3640807], [103.8432935, 1.3650823], [103.8435998, 1.3657228], [103.8448006, 1.3673662], [103.8451528, 1.3677791], [103.8454046, 1.3680248], [103.8456933, 1.3682415], [103.8460614, 1.3684415], [103.8464604, 1.3686054], [103.8469115, 1.3687122], [103.8473145, 1.3687677], [103.8478519, 1.3687952], [103.848391, 1.3688034], [103.8487381, 1.3688263], [103.8489962, 1.3688575], [103.8493165, 1.3689123], [103.8512494, 1.3694151], [103.852921, 1.3698142], [103.8533454, 1.3698775], [103.8537186, 1.3698974], [103.8541577, 1.3698778], [103.8545059, 1.3698315], [103.8548541, 1.3697523], [103.8567137, 1.3692702], [103.8572534, 1.3691664], [103.8578431, 1.3691001], [103.8583643, 1.3690857], [103.8589459, 1.3691087], [103.8596268, 1.3691747], [103.8602617, 1.3692638], [103.8609117, 1.3694074], [103.8616211, 1.3696045], [103.863319, 1.3701692], [103.8647496, 1.3706799], [103.865021, 1.370813], [103.8653017, 1.3709894], [103.865649, 1.3712143], [103.8660277, 1.37143], [103.8664166, 1.3716068], [103.8668017, 1.3717467], [103.867214, 1.3718226], [103.8675999, 1.371866], [103.86806, 1.3718749], [103.8685156, 1.3718618], [103.8689823, 1.3718044], [103.8697391, 1.3716426], [103.8736472, 1.3706855], [103.8755955, 1.3702245], [103.8777107, 1.3697572], [103.879889, 1.36929], [103.8809796, 1.3690491], [103.8813903, 1.3689649], [103.881783, 1.3689265], [103.8821951, 1.368942], [103.8825922, 1.3690149], [103.8829663, 1.3691303], [103.8833489, 1.3692971], [103.8837827, 1.3695476], [103.8841584, 1.3698324], [103.8845276, 1.3701868], [103.8849164, 1.370655], [103.8853401, 1.3712516], [103.8857897, 1.3718719], [103.8860387, 1.3721528], [103.8863173, 1.3724029], [103.8865925, 1.3725939], [103.8868999, 1.3727683], [103.8872883, 1.3729104], [103.887649, 1.3729658], [103.8880702, 1.3729797], [103.8884749, 1.3729379], [103.888819, 1.3728505], [103.8891593, 1.3726829], [103.8894549, 1.3724604], [103.8897349, 1.3722223], [103.8907866, 1.3712507], [103.8920973, 1.3700121], [103.8923772, 1.3696629], [103.892681, 1.3692364], [103.8929374, 1.3686761], [103.8930894, 1.3680334], [103.8931101, 1.3673525], [103.893056, 1.3668093], [103.8929636, 1.3663058], [103.8926172, 1.3649511], [103.8925451, 1.3645807], [103.8925364, 1.3642215], [103.8925623, 1.3639083], [103.8926437, 1.3635452], [103.8927578, 1.3631901], [103.8929061, 1.3629017], [103.8931259, 1.3625762], [103.8934031, 1.3622973], [103.8937463, 1.3620318], [103.8940792, 1.3618341], [103.8944261, 1.3616948], [103.8947443, 1.3616437], [103.8950692, 1.361649], [103.8953903, 1.3616803], [103.8956974, 1.361729], [103.8960559, 1.3617813], [103.897517, 1.3619946], [103.89923, 1.3622169], [103.9028748, 1.3627223], [103.9058792, 1.3631649], [103.9065507, 1.3633475], [103.9073499, 1.3636151], [103.9079693, 1.363927], [103.9085665, 1.3643302], [103.9091743, 1.3647918], [103.9097182, 1.3651711], [103.9101664, 1.3654226], [103.9108392, 1.3657076], [103.9114695, 1.3658543], [103.9233882, 1.366839], [103.9247641, 1.3668751], [103.9256441, 1.3668767], [103.9262717, 1.3668623], [103.926797, 1.3668247], [103.927326, 1.3667509], [103.9278322, 1.3666419], [103.9283702, 1.3664691], [103.9289651, 1.3663189], [103.9296109, 1.3662162], [103.9309108, 1.3661127], [103.9319855, 1.3660768], [103.9339605, 1.3660859], [103.9345, 1.3661425], [103.9351491, 1.3662948], [103.9357043, 1.3665234], [103.936383, 1.3668941], [103.9369128, 1.3675451], [103.9372014, 1.3679647], [103.9375005, 1.3684475], [103.9383871, 1.3698812], [103.939386, 1.3714967], [103.9399933, 1.3723758], [103.940307, 1.3727538], [103.9406487, 1.3729779], [103.9411037, 1.3731879], [103.9415455, 1.3733643], [103.9420036, 1.3734791], [103.9425324, 1.3735256], [103.9430658, 1.3735174], [103.9438683, 1.3734054], [103.9447188, 1.373181], [103.947211, 1.3720831], [103.948372, 1.3712956], [103.9489178, 1.3709253], [103.9506277, 1.3698521], [103.9511933, 1.3696257], [103.9518335, 1.3694575], [103.9524015, 1.3693498], [103.952893, 1.3693168], [103.954256, 1.3692837], [103.9554411, 1.3692235], [103.9562047, 1.3691188], [103.9569317, 1.3689666], [103.9578731, 1.368704], [103.9586313, 1.3684084], [103.9593129, 1.3680611], [103.9598028, 1.3677243], [103.9606472, 1.3670335], [103.9619824, 1.3657469], [103.9624577, 1.3654216], [103.963066, 1.365099], [103.9636706, 1.3648424], [103.9641506, 1.3647449], [103.9646257, 1.3647149], [103.9651029, 1.3647571], [103.9655317, 1.3648881], [103.9659095, 1.3650994], [103.9662518, 1.3653629], [103.9666477, 1.3657453], [103.967471, 1.3666196], [103.9722589, 1.3714324], [103.9758995, 1.3751253], [103.9763681, 1.3754878], [103.9769179, 1.3757988], [103.9774733, 1.3759909], [103.9780105, 1.3760888], [103.9786211, 1.3761398], [103.979253, 1.3761133], [103.9798334, 1.3760469], [103.9853128, 1.3749018], [103.9860659, 1.3747947], [103.9869581, 1.3746875], [103.9879082, 1.3746122], [103.9933773, 1.3743515], [103.9939277, 1.3742921], [103.9945167, 1.374171], [103.9950671, 1.3740124], [103.9963737, 1.3735945], [103.9978196, 1.3730255], [103.9988096, 1.3724562], [103.9998285, 1.3718485], [104.000817, 1.3713971], [104.0012028, 1.3712324], [104.0016997, 1.3710191], [104.0021838, 1.3708113], [104.0035455, 1.3702267], [104.0045726, 1.369795], [104.0056952, 1.3693184], [104.006507, 1.3689818], [104.0075426, 1.3685246], [104.0079954, 1.3682486], [104.0084944, 1.3677959], [104.0087958, 1.367373], [104.0089712, 1.3670423], [104.0091029, 1.3667004], [104.0091939, 1.3663395], [104.0092317, 1.3659206], [104.0092279, 1.3653797], [104.0090452, 1.3646413], [104.0063183, 1.3582152], [104.0059195, 1.3571978], [104.0053386, 1.3559928], [103.9943572, 1.3299956], [103.9939098, 1.3283684], [103.9934433, 1.327234], [103.9927839, 1.3256857], [103.9922078, 1.3243426], [103.990851, 1.3210763]]}, "properties": {"color": "#97C616", "name": "Cross Island Line (CRL)"}}, {"type": "Feature", "geometry": {"type": "LineString", "coordinates": [[103.9502695, 1.3701442], [103.9488788, 1.3710243], [103.948419, 1.3713616], [103.9477413, 1.3718181], [103.947437, 1.3720335], [103.9471532, 1.3721955], [103.9450923, 1.3731158], [103.9447104, 1.3732563], [103.943907, 1.3734766], [103.9430705, 1.3736111], [103.9427532, 1.3736524], [103.9425219, 1.373705], [103.9423503, 1.3737807], [103.941955, 1.3740468], [103.9414622, 1.3744199], [103.9412297, 1.3746423], [103.9410651, 1.3749253], [103.9409891, 1.3752283], [103.9409614, 1.3755685], [103.9409847, 1.3759227], [103.9410675, 1.3763756], [103.9412165, 1.3771122], [103.9414524, 1.3783745], [103.9414529, 1.3789115], [103.9413965, 1.3793148], [103.9412494, 1.3797856], [103.9409935, 1.3801021], [103.940828, 1.3802664], [103.9404811, 1.3805432], [103.939873, 1.3812621], [103.9397584, 1.3813908], [103.9396444, 1.3815677], [103.939561, 1.381838], [103.9390071, 1.3833508], [103.9387085, 1.3841664], [103.9384485, 1.3845822], [103.9380012, 1.3849672], [103.9370789, 1.3854598], [103.9354727, 1.3864959], [103.9314599, 1.3892091], [103.927271, 1.3927023], [103.9264224, 1.3932346], [103.9252593, 1.3935646], [103.9228129, 1.3937665], [103.9220032, 1.3938025], [103.920655, 1.3939941], [103.9187126, 1.3943434], [103.9178197, 1.3946698], [103.9173266, 1.3949959], [103.915608, 1.3962175], [103.9148115, 1.3967837], [103.9134175, 1.3977822], [103.9069559, 1.4024158], [103.9052814, 1.4035301], [103.9041316, 1.4042505], [103.9030796, 1.4048413], [103.9016328, 1.4056151], [103.9011429, 1.4058771], [103.9003527, 1.4062482], [103.8999748, 1.4063541], [103.8995888, 1.4064176], [103.898611, 1.4064239], [103.8971404, 1.4064094]]}, "properties": {"color": "#97C616", "name": "Cross Island Line (CRL)"}}, {"type": "Feature", "geometry": {"type": "LineString", "coordinates": [[103.7835287, 1.4534347], [103.7850037, 1.450834], [103.7862453, 1.4483393], [103.7865984, 1.4476298]]}, "properties": {"color": "#888888", "name": "Johor Bahru\u2013Singapore Rapid Transit System / Sistem Transit Aliran Johor Bahru\u2013Singapura"}}, {"type": "Feature", "geometry": {"type": "LineString", "coordinates": [[103.7835512, 1.4534547], [103.7830366, 1.4543908], [103.782499, 1.455247], [103.7812136, 1.4572396], [103.7786649, 1.4611826], [103.7784549, 1.4614981], [103.7783136, 1.4616819], [103.778211, 1.4618067], [103.77802, 1.4620201], [103.7778537, 1.4621768], [103.7776952, 1.462306], [103.777474, 1.4624685], [103.7772311, 1.4626159], [103.7770164, 1.4627287], [103.7768089, 1.4628179], [103.7765838, 1.4628982], [103.7763781, 1.4629578], [103.7761993, 1.4629996], [103.7759964, 1.4630371], [103.7757815, 1.463061], [103.7755986, 1.4630736], [103.7753721, 1.4630741], [103.7751958, 1.4630678], [103.7750428, 1.4630523], [103.7748965, 1.463032], [103.7746305, 1.4629818], [103.7743617, 1.4629178], [103.7742072, 1.4628741], [103.7731451, 1.4625861], [103.7721658, 1.4623157], [103.7719832, 1.4622629], [103.7717981, 1.4621978], [103.7716442, 1.4621358], [103.7714706, 1.4620474], [103.7713408, 1.4619823], [103.7710557, 1.4618045], [103.770693, 1.4615559], [103.7698, 1.4609473], [103.7687558, 1.4602579], [103.7685123, 1.4601116], [103.7684133, 1.4600595], [103.7683059, 1.4600186], [103.7681017, 1.4599465], [103.7679611, 1.4599112], [103.7677027, 1.4598741], [103.7675475, 1.459857], [103.7674348, 1.4598529], [103.767266, 1.4598554], [103.767204, 1.4598575], [103.7670897, 1.4598658], [103.7668009, 1.4599107], [103.7667273, 1.4599285], [103.7666004, 1.4599596], [103.7665045, 1.4599892], [103.7663956, 1.4600297], [103.7662674, 1.4600814], [103.7661156, 1.4601524], [103.7660063, 1.4602106], [103.765914, 1.4602629], [103.7658271, 1.4603171], [103.7656813, 1.4604248], [103.765591, 1.4604996], [103.7653604, 1.4607268], [103.7651636, 1.4609628], [103.7648074, 1.4615058], [103.7642312, 1.4624282], [103.764059, 1.4627479], [103.7639647, 1.4629355], [103.76371, 1.463462], [103.7632393, 1.4643975], [103.7626158, 1.4655688], [103.7625625, 1.465674], [103.7622369, 1.4662721], [103.7617551, 1.4671172], [103.7616933, 1.4671983]]}, "properties": {"color": "#888888", "name": "Johor Bahru\u2013Singapore Rapid Transit System / Sistem Transit Aliran Johor Bahru\u2013Singapura"}}, {"type": "Feature", "geometry": {"type": "LineString", "coordinates": [[103.7867242, 1.4476648], [103.7863608, 1.4483966], [103.7835512, 1.4534547]]}, "properties": {"color": "#888888", "name": "Johor Bahru\u2013Singapore Rapid Transit System / Sistem Transit Aliran Johor Bahru\u2013Singapura"}}, {"type": "Feature", "geometry": {"type": "LineString", "coordinates": [[103.7302748, 1.3605598], [103.7301293, 1.3606739], [103.7299444, 1.3608284], [103.7295281, 1.3612614], [103.7294222, 1.3613508], [103.7293301, 1.361403], [103.7292552, 1.3614378], [103.7291585, 1.3614677], [103.7290757, 1.3614859], [103.7289728, 1.3614963], [103.7288849, 1.3614918], [103.728826, 1.3614857], [103.728711, 1.3614672], [103.7286255, 1.3614401], [103.7285459, 1.3614082], [103.7284864, 1.3613799], [103.7283919, 1.3613241], [103.7282802, 1.3612264], [103.7282002, 1.3611343], [103.7281608, 1.3610753]]}, "properties": {"color": "#0099aa", "name": "Jurong Region Line (JRL)"}}, {"type": "Feature", "geometry": {"type": "LineString", "coordinates": [[103.7372836, 1.3281016], [103.7410899, 1.326953], [103.7413227, 1.3268489], [103.7416495, 1.3267029], [103.7419815, 1.3265545], [103.7498777, 1.3223218], [103.7507769, 1.32165], [103.7513758, 1.3207655], [103.7516777, 1.3194782], [103.7519231, 1.3152291], [103.7519586, 1.3146626], [103.7520205, 1.3142892], [103.7522217, 1.3135974], [103.7524394, 1.3131636], [103.7526522, 1.3127786], [103.7531015, 1.3121438], [103.7534484, 1.3117901], [103.7538006, 1.3115025], [103.7541755, 1.311263], [103.7545653, 1.3110721], [103.754974, 1.310926], [103.7553966, 1.3108264], [103.7560462, 1.3107622], [103.7566874, 1.3107142], [103.7590613, 1.3107339], [103.7595615, 1.31085], [103.7598802, 1.3109757], [103.7601823, 1.3111375], [103.7609128, 1.3116221], [103.7613505, 1.311953], [103.761689, 1.3122954], [103.7631076, 1.3143474], [103.7636457, 1.3150851], [103.7641323, 1.3155026], [103.764484, 1.3157265], [103.7665032, 1.3169677], [103.7673796, 1.3174102], [103.7681964, 1.3177987], [103.7686076, 1.3180397], [103.7691313, 1.3184399], [103.7695336, 1.318842], [103.7697643, 1.31911], [103.7697731, 1.3191361], [103.7700867, 1.3196107], [103.7703736, 1.3201638], [103.7711456, 1.3218346], [103.7718417, 1.322932], [103.7725509, 1.3240501], [103.7729126, 1.3244428], [103.7735295, 1.3248932], [103.7746131, 1.3254241], [103.7750798, 1.325762], [103.7754085, 1.3261322], [103.7756564, 1.3264818], [103.7779673, 1.3297408], [103.7783721, 1.3303117], [103.778853, 1.3307002], [103.779516, 1.3310296], [103.7806494, 1.3314496], [103.7812697, 1.3318495], [103.7815873, 1.3321463], [103.7818357, 1.3326098], [103.7837696, 1.3373629], [103.7841715, 1.3383487], [103.7845384, 1.3390326], [103.785061, 1.3396657], [103.7860822, 1.3401669], [103.7873911, 1.3404137], [103.7884426, 1.340242], [103.7896898, 1.3398905], [103.7907087, 1.3397041], [103.7916865, 1.3398646], [103.7925108, 1.3401556], [103.7961039, 1.3417769], [103.8005309, 1.3437039], [103.8020012, 1.3444704], [103.8026697, 1.3449775], [103.80336, 1.3457654], [103.8039439, 1.3468363], [103.8064561, 1.35233], [103.8073145, 1.3533276], [103.8091814, 1.3545288], [103.8105976, 1.3550652], [103.8164985, 1.3558159], [103.8178289, 1.3562236], [103.8187516, 1.3567705], [103.8194383, 1.3574248], [103.8211763, 1.3603851], [103.8223223, 1.3618828], [103.8238156, 1.3634956], [103.8265195, 1.3657583], [103.8275589, 1.3662258], [103.8285815, 1.3663177], [103.8296667, 1.3660521], [103.8321948, 1.3646969]]}, "properties": {"color": "#97C616", "name": "Cross Island Line (CRL)"}}, {"type": "Feature", "geometry": {"type": "LineString", "coordinates": [[103.7440874, 1.386129], [103.7441248, 1.3853041], [103.7441685, 1.3843413], [103.7442176, 1.3833802], [103.7442203, 1.3830149], [103.7442024, 1.3827967], [103.7441732, 1.3825784], [103.7441092, 1.3822781], [103.7440393, 1.3820658], [103.7439642, 1.3819143], [103.7438753, 1.3817714], [103.743764, 1.3816304], [103.743638, 1.3815045], [103.7434896, 1.3813957], [103.7433158, 1.3812921], [103.7429131, 1.3811058], [103.7426882, 1.3809934], [103.7424743, 1.3808694], [103.7415519, 1.3802461], [103.7406619, 1.3795728], [103.7394204, 1.3787316], [103.7391288, 1.3785555]]}, "properties": {"color": "#0099aa", "name": "Jurong Region Line (JRL)"}}, {"type": "Feature", "geometry": {"type": "LineString", "coordinates": [[103.7391288, 1.3785555], [103.7390747, 1.3785228]]}, "properties": {"color": "#0099aa", "name": "Jurong Region Line (JRL)"}}, {"type": "Feature", "geometry": {"type": "LineString", "coordinates": [[103.7390089, 1.3786075], [103.7390591, 1.3786455], [103.7393397, 1.3788581], [103.7405811, 1.379698], [103.7415253, 1.3802812], [103.7424566, 1.3809066], [103.7426689, 1.3810299], [103.7428872, 1.3811393], [103.7433066, 1.3813297], [103.7434662, 1.3814271], [103.7436135, 1.3815386], [103.7437343, 1.3816589], [103.7438392, 1.3817851], [103.7439257, 1.3819283], [103.7440001, 1.3820761], [103.7440708, 1.3822894], [103.7441335, 1.3825807], [103.7441592, 1.382799], [103.7441687, 1.3830158], [103.744151, 1.3833699], [103.7440413, 1.3843027], [103.7439958, 1.3852952], [103.7439582, 1.3861159]]}, "properties": {"color": "#0099aa", "name": "Jurong Region Line (JRL)"}}, {"type": "Feature", "geometry": {"type": "LineString", "coordinates": [[103.7281147, 1.360998], [103.7280422, 1.3608495]]}, "properties": {"color": "#0099aa", "name": "Jurong Region Line (JRL)"}}, {"type": "Feature", "geometry": {"type": "LineString", "coordinates": [[103.7281608, 1.3610753], [103.7281147, 1.360998]]}, "properties": {"color": "#0099aa", "name": "Jurong Region Line (JRL)"}}, {"type": "Feature", "geometry": {"type": "LineString", "coordinates": [[103.7253306, 1.3576029], [103.7270013, 1.3590145], [103.7271079, 1.3591125], [103.7272205, 1.3592475], [103.7273546, 1.3594544], [103.727468, 1.3597718], [103.7279731, 1.3612032], [103.7283573, 1.3622387], [103.7287533, 1.3632838], [103.7291877, 1.364428], [103.7296494, 1.3656336], [103.7300866, 1.3667824], [103.7304488, 1.3677489], [103.7306794, 1.3682401]]}, "properties": {"color": "#0099aa", "name": "Jurong Region Line (JRL)"}}, {"type": "Feature", "geometry": {"type": "LineString", "coordinates": [[103.7445013, 1.3197653], [103.7444449, 1.3196518], [103.7443866, 1.3193804], [103.7444154, 1.3189604], [103.7447062, 1.3185999], [103.7449394, 1.3185021], [103.7451606, 1.3184599], [103.748205, 1.3178355], [103.7487005, 1.3177096], [103.7493503, 1.3175434]]}, "properties": {"color": "#0099AA", "name": "Jurong Region Line (JRL)"}}, {"type": "Feature", "geometry": {"type": "LineString", "coordinates": [[103.749339, 1.3175053], [103.7486916, 1.3176672], [103.7481966, 1.3177999], [103.7451464, 1.3184128], [103.7449303, 1.3184582], [103.7446725, 1.3185558], [103.7443399, 1.3189467], [103.7442984, 1.3193777], [103.7443304, 1.319729], [103.7443689, 1.3198588]]}, "properties": {"color": "#0099AA", "name": "Jurong Region Line (JRL)"}}, {"type": "Feature", "geometry": {"type": "LineString", "coordinates": [[103.8505859, 1.275141], [103.8505496, 1.2750848], [103.85035, 1.2748057], [103.8502861, 1.2747163], [103.8501086, 1.274509], [103.8498943, 1.274307], [103.8496645, 1.2741363], [103.849471, 1.2740195], [103.8490756, 1.2738154]]}, "properties": {"color": "#FA9E0D", "name": "CCL Turnback Tunnel"}}, {"type": "Feature", "geometry": {"type": "LineString", "coordinates": [[103.8234669, 1.2653982], [103.8236515, 1.2654047], [103.8238615, 1.265428], [103.8241229, 1.2654691], [103.8249019, 1.2656744], [103.8251986, 1.2657729], [103.825687, 1.2660491], [103.8260554, 1.2662886], [103.8266336, 1.266811], [103.8280404, 1.2681809], [103.829112, 1.2691038], [103.8295124, 1.2694445], [103.8304538, 1.2702565], [103.8313953, 1.2710685], [103.8321697, 1.271767], [103.8332331, 1.2727082], [103.8334347, 1.2728151], [103.8336575, 1.2729003], [103.8338712, 1.2729494], [103.8342172, 1.2729953], [103.8347413, 1.2730269], [103.8369552, 1.2731066], [103.8372171, 1.2731161], [103.8382309, 1.2731453], [103.8389111, 1.2730616], [103.8395575, 1.2728863], [103.8401022, 1.2728123], [103.8407058, 1.2728003], [103.8454774, 1.2729254], [103.8459071, 1.2729332], [103.846169, 1.2729619], [103.8464524, 1.2730312], [103.8472056, 1.2732782], [103.8489443, 1.2738483], [103.8490522, 1.2738834], [103.849471, 1.2740195], [103.8499184, 1.274165], [103.8503218, 1.2742419], [103.8506519, 1.2742462], [103.8509803, 1.2742039], [103.8513708, 1.2741061], [103.8520321, 1.2739099], [103.8523885, 1.2738412], [103.8527338, 1.273828], [103.8530761, 1.2738715], [103.8534391, 1.2739706], [103.8537554, 1.2741386], [103.8540105, 1.2743033], [103.8541515, 1.2744261], [103.8542303, 1.2745237], [103.8547037, 1.2751946]]}, "properties": {"color": "#fa9e0d", "name": "Circle Line (CC)"}}, {"type": "Feature", "geometry": {"type": "LineString", "coordinates": [[103.8490522, 1.2738834], [103.849392, 1.2740503], [103.8496794, 1.2742212], [103.849681, 1.2742222], [103.8499554, 1.2744349], [103.8501723, 1.2746646], [103.8503035, 1.2748547], [103.8503588, 1.274935], [103.8505202, 1.275179]]}, "properties": {"color": "#FA9E0D", "name": "CCL Turnback Tunnel"}}, {"type": "Feature", "geometry": {"type": "LineString", "coordinates": [[103.8296295, 1.2693505], [103.8298935, 1.2694667], [103.8320839, 1.2714378], [103.8322349, 1.2716825]]}, "properties": {"color": "#fa9e0d", "name": "Circle Line (CC)"}}, {"type": "Feature", "geometry": {"type": "LineString", "coordinates": [[103.8295124, 1.2694445], [103.829671, 1.2697], [103.8318892, 1.2716653], [103.8321697, 1.271767]]}, "properties": {"color": "#fa9e0d", "name": "Circle Line (CC)"}}, {"type": "Feature", "geometry": {"type": "LineString", "coordinates": [[103.85035, 1.2748057], [103.8504352, 1.2749882], [103.8505202, 1.275179]]}, "properties": {"color": "#FA9E0D", "name": "CCL Turnback Tunnel"}}, {"type": "Feature", "geometry": {"type": "LineString", "coordinates": [[103.8503035, 1.2748547], [103.8504352, 1.2749882], [103.8505859, 1.275141]]}, "properties": {"color": "#FA9E0D", "name": "CCL Turnback Tunnel"}}, {"type": "Feature", "geometry": {"type": "LineString", "coordinates": [[103.8505202, 1.275179], [103.8506619, 1.2753934], [103.8515857, 1.2768349]]}, "properties": {"color": "#FA9E0D", "name": "CCL Turnback Tunnel"}}, {"type": "Feature", "geometry": {"type": "LineString", "coordinates": [[103.8516529, 1.2767914], [103.8505859, 1.275141]]}, "properties": {"color": "#FA9E0D", "name": "CCL Turnback Tunnel"}}, {"type": "Feature", "geometry": {"type": "LineString", "coordinates": [[103.9622336, 1.3355083], [103.9630823, 1.3349067], [103.9643851, 1.3341114], [103.9646486, 1.333908], [103.9648899, 1.3337118], [103.9650897, 1.3335067], [103.9652491, 1.3333029], [103.9654046, 1.3330561], [103.9655801, 1.3327206], [103.9657507, 1.332311], [103.9658535, 1.3320158], [103.9659251, 1.3316986], [103.9659438, 1.3314158], [103.9659122, 1.3311394], [103.9658196, 1.3308692], [103.9650807, 1.3290461], [103.9640503, 1.3266121], [103.9638617, 1.3263751], [103.9635579, 1.3260512], [103.9620749, 1.3243328], [103.9606103, 1.3225094], [103.9605454, 1.3224285], [103.9601576, 1.3220264], [103.9598461, 1.3217778], [103.959046, 1.3213323], [103.9589853, 1.3213046]]}, "properties": {"color": "#0354A6", "name": "Downtown Line (DT)"}}, {"type": "Feature", "geometry": {"type": "LineString", "coordinates": [[103.9586695, 1.3210399], [103.9591304, 1.3212432], [103.9595767, 1.3214852], [103.9601129, 1.3218312], [103.9604866, 1.3222224], [103.9606796, 1.3224652], [103.9608573, 1.3226889], [103.9622368, 1.3244252], [103.9634837, 1.3257099], [103.9638397, 1.3260933], [103.9642555, 1.3265261], [103.9646291, 1.3268795], [103.9649895, 1.3271496], [103.9655762, 1.3274126], [103.9661031, 1.3275098], [103.9667357, 1.3275111], [103.9672836, 1.3273942], [103.9677654, 1.3271789], [103.9689424, 1.3264017], [103.9694949, 1.3261111], [103.9699488, 1.3259186], [103.9716829, 1.3252761], [103.972118, 1.3250672], [103.9725954, 1.3247534], [103.9729876, 1.3244092], [103.9744868, 1.3225794], [103.9748354, 1.3222483], [103.9752581, 1.3219128], [103.9771277, 1.3209151], [103.9778355, 1.3206809], [103.9835137, 1.3194878], [103.984314, 1.3192682], [103.9865894, 1.3184534], [103.987138, 1.3183925], [103.9876784, 1.3184273], [103.9882885, 1.3186103], [103.9888114, 1.3188674], [103.9892167, 1.3192508], [103.9895997, 1.3197487], [103.9910376, 1.3230688], [103.9911329, 1.3232888]]}, "properties": {"color": "#9D5B25", "name": "Thomson-East Coast Line Extension"}}, {"type": "Feature", "geometry": {"type": "LineString", "coordinates": [[103.9586589, 1.3211559], [103.9588096, 1.3212638], [103.9589581, 1.3213702]]}, "properties": {"color": "#0354A6", "name": "Downtown Line (DT)"}}, {"type": "Feature", "geometry": {"type": "LineString", "coordinates": [[103.9589853, 1.3213046], [103.9588096, 1.3212638], [103.9586298, 1.3212188]]}, "properties": {"color": "#0354A6", "name": "Downtown Line (DT)"}}, {"type": "Feature", "geometry": {"type": "LineString", "coordinates": [[103.9586589, 1.3211559], [103.957206, 1.3204943], [103.9563599, 1.3201275]]}, "properties": {"color": "#0354A6", "name": "Downtown Line (DT)"}}, {"type": "Feature", "geometry": {"type": "LineString", "coordinates": [[103.956333, 1.3201845], [103.9571837, 1.320552], [103.9586298, 1.3212188]]}, "properties": {"color": "#0354A6", "name": "Downtown Line (DT)"}}, {"type": "Feature", "geometry": {"type": "LineString", "coordinates": [[103.9586298, 1.3212188], [103.9589581, 1.3213702]]}, "properties": {"color": "#0354A6", "name": "Downtown Line (DT)"}}, {"type": "Feature", "geometry": {"type": "LineString", "coordinates": [[103.9589853, 1.3213046], [103.9586589, 1.3211559]]}, "properties": {"color": "#0354A6", "name": "Downtown Line (DT)"}}, {"type": "Feature", "geometry": {"type": "LineString", "coordinates": [[103.9563659, 1.3200519], [103.957239, 1.3204088], [103.9586695, 1.3210399]]}, "properties": {"color": "#9D5B25", "name": "Thomson\u2013East Coast Line"}}, {"type": "Feature", "geometry": {"type": "LineString", "coordinates": [[103.9560028, 1.3199047], [103.9563659, 1.3200519]]}, "properties": {"color": "#9D5B25", "name": "Thomson\u2013East Coast Line"}}, {"type": "Feature", "geometry": {"type": "LineString", "coordinates": [[103.9606796, 1.3224652], [103.9607651, 1.322621], [103.9608163, 1.3228117], [103.9608186, 1.3230513], [103.9607742, 1.3233972], [103.9607293, 1.3236013], [103.9606336, 1.3238356], [103.9605288, 1.3240248], [103.9603356, 1.3243044], [103.9601811, 1.3244589], [103.9598116, 1.3247512]]}, "properties": {"color": "#9D5B25", "name": "Thomson\u2013East Coast Line"}}, {"type": "Feature", "geometry": {"type": "LineString", "coordinates": [[103.9598116, 1.3247512], [103.9602476, 1.3244339], [103.960315, 1.324363], [103.9604711, 1.3241812], [103.9605916, 1.3240131], [103.960715, 1.3237791], [103.9607883, 1.3235697], [103.9608686, 1.3231705], [103.9608867, 1.322925], [103.9608742, 1.3227738], [103.9608573, 1.3226889], [103.9608321, 1.3225845], [103.9607374, 1.3224098]]}, "properties": {"color": "#9D5B25", "name": "Thomson\u2013East Coast Line"}}, {"type": "Feature", "geometry": {"type": "LineString", "coordinates": [[103.9906723, 1.3211416], [103.9920457, 1.3244123], [103.9926284, 1.3257487], [103.9932534, 1.3272885], [103.9937336, 1.328432], [103.9942142, 1.3299784], [104.0052733, 1.3560287], [104.0055509, 1.3569168], [104.0062335, 1.3585495], [104.008851, 1.3648104], [104.0090385, 1.3657514], [104.0089745, 1.3664907], [104.0088228, 1.366956], [104.0086879, 1.3672433], [104.0085377, 1.3674868], [104.0081283, 1.3679646], [104.0076213, 1.3683625], [104.0065683, 1.3688424], [104.0056366, 1.3692447], [104.0045287, 1.3697231], [104.0035134, 1.3701616], [104.0021575, 1.3707497], [104.001666, 1.3709628], [104.0011984, 1.3711657], [104.0000631, 1.3716593], [103.9987656, 1.3724063], [103.9977599, 1.3729857], [103.9963686, 1.373536], [103.9951929, 1.3739231], [103.9943836, 1.3741381], [103.9937114, 1.3742294], [103.9906732, 1.3743851], [103.9883347, 1.3745177], [103.9872594, 1.3745938], [103.9861793, 1.374708], [103.9852394, 1.3748347], [103.9807389, 1.3757937], [103.9798279, 1.3759684], [103.9794211, 1.3760318], [103.9788315, 1.3760645], [103.9783019, 1.3760432], [103.977581, 1.3759431], [103.9769725, 1.3757297], [103.9764786, 1.3754692], [103.9759783, 1.3750824], [103.9746012, 1.3737014], [103.9723216, 1.3713576], [103.9692786, 1.3682926], [103.9665629, 1.3655181], [103.9660651, 1.3650827], [103.9657597, 1.3649092], [103.9654003, 1.3647567], [103.9649172, 1.3646541], [103.9645105, 1.3646347], [103.9640336, 1.3646928], [103.9636021, 1.3647779], [103.9630609, 1.3650096], [103.962398, 1.3653443], [103.9619464, 1.3656948], [103.9606009, 1.3669738], [103.9599994, 1.3674829], [103.9596372, 1.3677534], [103.9591343, 1.3680743], [103.9585015, 1.3683801], [103.9577352, 1.3686773], [103.9565757, 1.3689882], [103.9558961, 1.3691023], [103.9553914, 1.3691548], [103.9545035, 1.3692104], [103.9528822, 1.3692545], [103.9523796, 1.3692911], [103.9518034, 1.3693977], [103.9511209, 1.3695814], [103.9505286, 1.3698212], [103.9494896, 1.3704988], [103.9488542, 1.3709131], [103.9483447, 1.3712574], [103.9477629, 1.371658], [103.9471401, 1.3720504], [103.9450518, 1.3729555], [103.944669, 1.3731128], [103.9441689, 1.3732568], [103.9436934, 1.3733637], [103.9432185, 1.3734272], [103.942734, 1.3734572], [103.9422679, 1.3734239], [103.9417903, 1.3733172], [103.9412547, 1.3731438], [103.940691, 1.3729001], [103.9403308, 1.3726714], [103.9395168, 1.371564], [103.9384678, 1.3698302], [103.9371543, 1.3677215], [103.9364408, 1.3668493], [103.9358463, 1.3664866], [103.9352985, 1.3662678], [103.9345803, 1.3660769], [103.9339971, 1.3660181], [103.9318905, 1.3660213], [103.9303063, 1.3660974], [103.9295789, 1.3661505], [103.9288975, 1.3662437], [103.9279744, 1.3665131], [103.9274535, 1.366661], [103.9264326, 1.3667865], [103.9256493, 1.3668042], [103.9248585, 1.3668069], [103.9234384, 1.3667616], [103.9212373, 1.3665926], [103.9158933, 1.3661284], [103.9117042, 1.3657869], [103.9110359, 1.3656616], [103.9103661, 1.365387], [103.9096879, 1.3650199], [103.9082761, 1.3640161], [103.9079215, 1.3637769], [103.9073498, 1.3635109], [103.9066827, 1.3632861], [103.9060071, 1.3631039], [103.9042528, 1.3628503], [103.9015501, 1.3624555], [103.8992501, 1.3621341], [103.8977643, 1.3619456], [103.8950577, 1.3615538], [103.8947687, 1.3615521], [103.8944315, 1.3615987], [103.8940315, 1.361759], [103.8936918, 1.3619515], [103.8934639, 1.3621249], [103.8932774, 1.3623008], [103.8930901, 1.362487], [103.8929112, 1.3627481], [103.8927593, 1.3629862], [103.8926535, 1.3632758], [103.8925053, 1.3637645], [103.8924778, 1.3639927], [103.8924723, 1.3643073], [103.8924775, 1.3645759], [103.8925376, 1.3649502], [103.8929234, 1.3664902], [103.8929803, 1.3669187], [103.89303, 1.3673522], [103.8930437, 1.3676816], [103.8930103, 1.3679732], [103.8929526, 1.3683136], [103.8928413, 1.3686943], [103.892746, 1.368892], [103.8925665, 1.3692739], [103.8920535, 1.3699198], [103.890727, 1.3711919], [103.8896308, 1.3722159], [103.8891977, 1.3725609], [103.8888896, 1.3727382], [103.8885334, 1.3728243], [103.8882555, 1.372873], [103.8879126, 1.372882], [103.8875383, 1.3728431], [103.8871877, 1.3727668], [103.8867903, 1.3725833], [103.8865077, 1.3724115], [103.8862318, 1.3721732], [103.8858938, 1.371836], [103.885008, 1.3705914], [103.8847208, 1.3702487], [103.8843652, 1.3699064], [103.8839555, 1.3695533], [103.883567, 1.3693039], [103.8831989, 1.3691136], [103.8827084, 1.3689364], [103.8823299, 1.3688519], [103.8818893, 1.3688416], [103.8814271, 1.3688733], [103.8797599, 1.3692391], [103.8775477, 1.3697266], [103.87532, 1.370205], [103.8736214, 1.3706034], [103.8721133, 1.3709948], [103.8696828, 1.3715822], [103.8691557, 1.3716995], [103.868777, 1.3717512], [103.8683361, 1.371793], [103.867888, 1.3718061], [103.8674011, 1.3717629], [103.8669385, 1.3716815], [103.8665206, 1.3715407], [103.8661734, 1.371389], [103.8657303, 1.371153], [103.865221, 1.3708492], [103.8647031, 1.3705625], [103.8633406, 1.3700942], [103.8621133, 1.3696821], [103.8612629, 1.3694079], [103.8604846, 1.3692136], [103.8597007, 1.3690933], [103.8589837, 1.3690366], [103.8582918, 1.3690115], [103.8577987, 1.3690206], [103.8571603, 1.369092], [103.8568051, 1.369169], [103.8546844, 1.3697049], [103.8541768, 1.369799], [103.8537154, 1.3698436], [103.8531904, 1.3698002], [103.8527011, 1.3697078], [103.8512635, 1.3693528], [103.8498419, 1.3689963], [103.8496159, 1.3689373], [103.8490494, 1.3687983], [103.8486221, 1.3687444], [103.8475384, 1.3687017], [103.8471738, 1.3686688], [103.8468103, 1.3686026], [103.8464789, 1.3685232], [103.8460431, 1.3683433], [103.8456759, 1.3681052], [103.8453844, 1.3678759], [103.8448479, 1.3672476], [103.8437921, 1.3658293], [103.8436834, 1.3656492], [103.843396, 1.3650483], [103.8431766, 1.3645853], [103.8429298, 1.3640056], [103.8426827, 1.3635841], [103.8422306, 1.3630091], [103.8416458, 1.3624794], [103.8412313, 1.3622134], [103.8409178, 1.3620515], [103.8404635, 1.3619364], [103.8400424, 1.3619171], [103.8395377, 1.3619438], [103.8388393, 1.3621187], [103.8360729, 1.3632763], [103.8346166, 1.3638605], [103.8341353, 1.363984], [103.833452, 1.3641261], [103.8327842, 1.3642989], [103.832142, 1.3645995]]}, "properties": {"color": "#97C616", "name": "Cross Island Line (CRL)"}}, {"type": "Feature", "geometry": {"type": "LineString", "coordinates": [[103.832142, 1.3645995], [103.8296626, 1.3659477], [103.8291783, 1.3660668], [103.8285398, 1.3661961], [103.8277499, 1.3661292], [103.8270523, 1.365874], [103.8265272, 1.3655625], [103.8248676, 1.3641623], [103.8238241, 1.3632613], [103.8224207, 1.3617593], [103.8213422, 1.3603872], [103.8196257, 1.3574206], [103.8192143, 1.3569728], [103.8187482, 1.3565584], [103.8180502, 1.3561455], [103.8173363, 1.3558645], [103.8165798, 1.3556729], [103.8127826, 1.3551751], [103.8116001, 1.3550203], [103.8106982, 1.3548873], [103.8100199, 1.3546523], [103.8093384, 1.3543731], [103.8083368, 1.3537522], [103.8074177, 1.353135], [103.8069761, 1.352638], [103.8065959, 1.3521868], [103.8043575, 1.3473277], [103.8038465, 1.3463478], [103.8035206, 1.3457787], [103.8031715, 1.3453251], [103.8027806, 1.3449005], [103.8021031, 1.3443863], [103.8006948, 1.3436581], [103.7979626, 1.3424803], [103.794217, 1.3408083], [103.792761, 1.3401556], [103.7917662, 1.3397881], [103.7912733, 1.339668], [103.7907985, 1.3396667], [103.7904288, 1.3396917], [103.7897601, 1.3397733], [103.7888523, 1.3399862], [103.7881113, 1.3401724], [103.7875146, 1.3402447], [103.7871852, 1.3402432], [103.7867388, 1.3401591], [103.7862223, 1.3400403], [103.7859935, 1.3399417], [103.7856316, 1.3397857], [103.7851798, 1.3395357], [103.7848701, 1.3392334], [103.7847405, 1.3390557], [103.7845765, 1.3388309], [103.7843149, 1.338324], [103.7838992, 1.3373372], [103.7825989, 1.334143], [103.7817927, 1.3322831], [103.7815561, 1.3319568], [103.7811679, 1.3316282], [103.7806576, 1.3313439], [103.7795676, 1.3309412], [103.7791193, 1.3307275], [103.7787283, 1.3304663], [103.778389, 1.3302028], [103.7776018, 1.3291014], [103.7770155, 1.3282562], [103.7760311, 1.3268326], [103.7753324, 1.3259152], [103.7749771, 1.3255385], [103.7744649, 1.3252075], [103.7739213, 1.3249695], [103.7732284, 1.3245485], [103.7727229, 1.3240825], [103.771667, 1.3224421], [103.7712512, 1.3217798], [103.7707228, 1.3207072], [103.7703763, 1.3199746], [103.7698916, 1.3191227], [103.7695519, 1.3187169], [103.7690236, 1.3182495], [103.7683985, 1.3178136], [103.7672849, 1.3172754], [103.7644689, 1.3156154], [103.7639849, 1.315279], [103.7636913, 1.3150161], [103.7617863, 1.3122546], [103.7613887, 1.3118469], [103.7604897, 1.3112096], [103.7601764, 1.3110063], [103.7596811, 1.3107824], [103.7592903, 1.3106818], [103.758884, 1.3106357], [103.7567486, 1.3106182], [103.7557805, 1.3107011], [103.7551941, 1.3107802], [103.7545585, 1.3109754], [103.7540684, 1.3112144], [103.7534414, 1.3116756], [103.7530533, 1.3120603], [103.7526788, 1.3125795], [103.7523041, 1.313302], [103.7521266, 1.3136667], [103.7519536, 1.3142247], [103.7518675, 1.3146651], [103.7516015, 1.3192719], [103.7515838, 1.3194857], [103.7513033, 1.3207708], [103.7506875, 1.3216371], [103.7498724, 1.3222386], [103.7492095, 1.3225923], [103.7480468, 1.3232177], [103.746609, 1.3240021], [103.7423646, 1.3262834], [103.7419705, 1.3264957], [103.7416316, 1.3266493], [103.7413067, 1.3267857], [103.7410508, 1.32689], [103.7372642, 1.3280365]]}, "properties": {"color": "#97C616", "name": "Cross Island Line (CRL)"}}, {"type": "Feature", "geometry": {"type": "LineString", "coordinates": [[103.8971365, 1.4064838], [103.8995636, 1.4064894], [103.8998842, 1.4064495], [103.900271, 1.4063556], [103.900541, 1.4062298], [103.9011539, 1.4059418], [103.9016674, 1.4056661], [103.9030161, 1.4049419], [103.9039188, 1.4044395], [103.9046265, 1.4040095], [103.9063823, 1.4028944], [103.9083863, 1.4014961], [103.9124098, 1.3986032], [103.9155703, 1.3963242], [103.9156517, 1.396268], [103.9170165, 1.3953238], [103.9178805, 1.3947655], [103.9187079, 1.3944542], [103.9203417, 1.3941573], [103.9220295, 1.3938969], [103.9242074, 1.3937548], [103.9252433, 1.3936537], [103.9264921, 1.3933111], [103.9273384, 1.3927743], [103.9312291, 1.3895432], [103.9323856, 1.388702], [103.9369179, 1.3856375], [103.9375921, 1.3852859], [103.9381139, 1.3850113], [103.9384925, 1.3846474], [103.9387739, 1.3841645], [103.9390626, 1.3833643], [103.9396918, 1.3816552], [103.9398202, 1.3814668], [103.9405409, 1.3806024], [103.9412888, 1.3798647], [103.9414147, 1.3795316], [103.9415267, 1.3791084], [103.9415468, 1.3787012], [103.9415169, 1.3783495], [103.9414635, 1.3780675], [103.9410422, 1.3757684], [103.9410414, 1.3755657], [103.9410673, 1.3753127], [103.9411384, 1.3750033], [103.9412663, 1.3747424], [103.9415454, 1.3744369], [103.9420268, 1.3741056], [103.9424536, 1.3738279], [103.9427869, 1.3737178], [103.9430794, 1.3736747], [103.9439423, 1.3735264], [103.9446453, 1.3733338], [103.9451121, 1.3731743], [103.9470939, 1.3722949], [103.9474304, 1.372111], [103.9479312, 1.3717721], [103.9484483, 1.3714028], [103.9492928, 1.3708408], [103.9503005, 1.3701903]]}, "properties": {"color": "#97C616", "name": "Cross Island Line (CRL)"}}, {"type": "Feature", "geometry": {"type": "LineString", "coordinates": [[103.7616933, 1.4671983], [103.7614682, 1.4675286], [103.7609041, 1.4682684], [103.7606221, 1.4685361]]}, "properties": {"color": "#888888", "name": "Johor Bahru\u2013Singapore Rapid Transit System / Sistem Transit Aliran Johor Bahru\u2013Singapura"}}, {"type": "Feature", "geometry": {"type": "LineString", "coordinates": [[103.7607467, 1.4720944], [103.7602177, 1.4704803], [103.7600782, 1.4701863], [103.7599901, 1.4699321], [103.7599694, 1.4698372], [103.75996, 1.4697513], [103.7599595, 1.4696871], [103.759965, 1.4695736], [103.7599855, 1.4694447], [103.7600178, 1.4693463], [103.7600449, 1.4692783], [103.7600791, 1.4692071], [103.7601259, 1.4691385], [103.7602583, 1.4689591], [103.7604094, 1.4687543], [103.760572, 1.4685278], [103.7613852, 1.4674378]]}, "properties": {"color": "#888888", "name": "Johor Bahru\u2013Singapore Rapid Transit System / Sistem Transit Aliran Johor Bahru\u2013Singapura"}}, {"type": "Feature", "geometry": {"type": "LineString", "coordinates": [[103.761095, 1.4679128], [103.7606221, 1.4685361]]}, "properties": {"color": "#888888", "name": "Johor Bahru\u2013Singapore Rapid Transit System / Sistem Transit Aliran Johor Bahru\u2013Singapura"}}, {"type": "Feature", "geometry": {"type": "LineString", "coordinates": [[103.7606221, 1.4685361], [103.7604936, 1.4687191], [103.760431, 1.4688108], [103.760202, 1.4691018], [103.7601158, 1.4692268], [103.7600937, 1.469272], [103.7600543, 1.4693571], [103.7600195, 1.469475], [103.7600012, 1.4695705], [103.7599956, 1.4697265], [103.7600072, 1.4698437], [103.7600348, 1.4699545], [103.7601182, 1.4701452], [103.7602295, 1.4703768], [103.7603143, 1.4705675], [103.7608534, 1.4722782]]}, "properties": {"color": "#888888", "name": "Johor Bahru\u2013Singapore Rapid Transit System / Sistem Transit Aliran Johor Bahru\u2013Singapura"}}, {"type": "Feature", "geometry": {"type": "LineString", "coordinates": [[103.7616933, 1.4671983], [103.7614214, 1.4674721], [103.761095, 1.4679128]]}, "properties": {"color": "#888888", "name": "Johor Bahru\u2013Singapore Rapid Transit System / Sistem Transit Aliran Johor Bahru\u2013Singapura"}}, {"type": "Feature", "geometry": {"type": "LineString", "coordinates": [[103.7613852, 1.4674378], [103.761095, 1.4679128]]}, "properties": {"color": "#888888", "name": "Johor Bahru\u2013Singapore Rapid Transit System / Sistem Transit Aliran Johor Bahru\u2013Singapura"}}, {"type": "Feature", "geometry": {"type": "LineString", "coordinates": [[103.7632393, 1.4643975], [103.7630528, 1.464692], [103.7629637, 1.464822], [103.7628388, 1.4649842], [103.7626822, 1.4652005], [103.762547, 1.4653978]]}, "properties": {"color": "#888888", "name": "Johor Bahru\u2013Singapore Rapid Transit System / Sistem Transit Aliran Johor Bahru\u2013Singapura"}}, {"type": "Feature", "geometry": {"type": "LineString", "coordinates": [[103.7630858, 1.4643655], [103.762977, 1.4646438], [103.7628388, 1.4649842], [103.7627717, 1.4651959], [103.7626158, 1.4655688]]}, "properties": {"color": "#888888", "name": "Johor Bahru\u2013Singapore Rapid Transit System / Sistem Transit Aliran Johor Bahru\u2013Singapura"}}, {"type": "Feature", "geometry": {"type": "LineString", "coordinates": [[103.7515718, 1.363747], [103.7514833, 1.3641357], [103.7513701, 1.3656243], [103.7513167, 1.3658848], [103.7511821, 1.3663056], [103.7510048, 1.366706], [103.7507196, 1.3671641], [103.75046, 1.3674813], [103.7500162, 1.3678867], [103.7493754, 1.3684527], [103.7486132, 1.3691353], [103.7484348, 1.3693211], [103.7479716, 1.3697819]]}, "properties": {"color": "#888888", "name": ""}}, {"type": "Feature", "geometry": {"type": "LineString", "coordinates": [[103.9923325, 1.3261742], [103.9927438, 1.327133], [103.9933546, 1.3285569], [103.9936793, 1.3290884], [103.9948516, 1.3318202], [103.9956285, 1.3337215], [103.9958117, 1.3343691], [103.9959089, 1.3348885], [103.9959622, 1.3354852], [103.9954498, 1.341931], [103.9944552, 1.3525189], [103.9942728, 1.3531245], [103.9940531, 1.3536496], [103.9936401, 1.354325], [103.9932462, 1.3547618], [103.9928045, 1.3551556], [103.9922876, 1.3554862], [103.9917445, 1.3557475], [103.9896153, 1.3566538]]}, "properties": {"color": "#9D5B25", "name": "Thomson-East Coast Line Extension"}}, {"type": "Feature", "geometry": {"type": "LineString", "coordinates": [[103.9911329, 1.3232888], [103.9916676, 1.3245748], [103.9923325, 1.3261742]]}, "properties": {"color": "#9D5B25", "name": "Thomson-East Coast Line Extension"}}]}